GLOBALSTAR M094         
1 39074U 13005C   24275.40331699 -.00000099  00000+0  27478-4 0  9997
2 39074  51.9946 250.0375 0000714  61.2016 298.8922 12.62268860539715
GLOBALSTAR M096         
1 39075U 13005D   24275.09979180 -.00000069  00000+0  19306-3 0  9993
2 39075  52.0071 299.2762 0000657  65.5172 294.5763 12.62270910538925
GLOBALSTAR M078         
1 39076U 13005E   24274.83557025 -.00000164  00000+0 -33668-3 0  9999
2 39076  51.9903  24.9383 0000687   4.7953 355.2921 12.62274240537161
GLOBALSTAR M095         
1 39077U 13005F   24274.78307156 -.00000093  00000+0  57714-4 0  9991
2 39077  51.9826  22.4255 0000816  54.0938 306.0004 12.62265086537010
GLOBALSTAR M087         
1 52888U 22064A   24275.13998097 -.00000065  00000+0  12058-3 0  9991
2 52888  51.9749 198.9247 0008731 275.2247  84.7657 13.37587217111707
